{
  "type": "FeatureCollection",
  "features": [
    {
      "type": "Feature",
      "properties": {
        "norad_id": 59626,
        "name": "LEGION 2",
        "group": "resource",
        "lat": -22.067884169794798,
        "lon": 68.74416018300846,
        "alt_km": 519.9291334457012,
        "timestamp": "2025-12-16T23:36:35.842857+00:00",
        "meta_object_name": "LEGION 2",
        "meta_object_id": "2024-081B",
        "meta_epoch": "2025-12-16T06:17:19.326336",
        "meta_mean_motion": 15.16529259,
        "meta_eccentricity": 0.00056235,
        "meta_inclination": 97.5218,
        "meta_ra_of_asc_node": 64.9579,
        "meta_arg_of_pericenter": 278.6226,
        "meta_mean_anomaly": 81.437,
        "meta_ephemeris_type": 0,
        "meta_classification_type": "U",
        "meta_norad_cat_id": 59626,
        "meta_element_set_no": 999,
        "meta_rev_at_epoch": 8981,
        "meta_bstar": 0.00018416434,
        "meta_mean_motion_dot": 3.524e-05,
        "meta_mean_motion_ddot": 0,
        "tle_line1": "1 59626U 24081B   25350.26202924  .00003524  00000+0  18416-3 0  9991",
        "tle_line2": "2 59626  97.5218  64.9579 0005623 278.6226  81.4370 15.16529259 89815"
      },
      "geometry": {
        "type": "Point",
        "coordinates": [
          68.74416018300846,
          -22.067884169794798
        ]
      }
    },
    {
      "type": "Feature",
      "properties": {
        "norad_id": 60182,
        "name": "ALOS-4 (DAICHI-4)",
        "group": "resource",
        "lat": 29.678314636396102,
        "lon": -89.67787493708144,
        "alt_km": 628.922184185516,
        "timestamp": "2025-12-16T23:36:35.842867+00:00",
        "meta_object_name": "ALOS-4 (DAICHI-4)",
        "meta_object_id": "2024-123A",
        "meta_epoch": "2025-12-16T08:19:33.890592",
        "meta_mean_motion": 14.79475317,
        "meta_eccentricity": 0.00013958,
        "meta_inclination": 97.9225,
        "meta_ra_of_asc_node": 85.1427,
        "meta_arg_of_pericenter": 99.6272,
        "meta_mean_anomaly": 260.5097,
        "meta_ephemeris_type": 0,
        "meta_classification_type": "U",
        "meta_norad_cat_id": 60182,
        "meta_element_set_no": 999,
        "meta_rev_at_epoch": 7884,
        "meta_bstar": 0.00026776971,
        "meta_mean_motion_dot": 1.949e-05,
        "meta_mean_motion_ddot": 0,
        "tle_line1": "1 60182U 24123A   25350.34692003  .00001949  00000+0  26777-3 0  9995",
        "tle_line2": "2 60182  97.9225  85.1427 0001395  99.6272 260.5097 14.79475317 78847"
      },
      "geometry": {
        "type": "Point",
        "coordinates": [
          -89.67787493708144,
          29.678314636396102
        ]
      }
    },
    {
      "type": "Feature",
      "properties": {
        "norad_id": 60452,
        "name": "LEGION 3",
        "group": "resource",
        "lat": 34.7412285229963,
        "lon": -28.680085092661155,
        "alt_km": 523.5436652584767,
        "timestamp": "2025-12-16T23:36:35.842877+00:00",
        "meta_object_name": "LEGION 3",
        "meta_object_id": "2024-146A",
        "meta_epoch": "2025-12-16T05:58:30.302976",
        "meta_mean_motion": 15.15801065,
        "meta_eccentricity": 0.0015289,
        "meta_inclination": 45.0022,
        "meta_ra_of_asc_node": 291.3194,
        "meta_arg_of_pericenter": 217.6692,
        "meta_mean_anomaly": 142.3117,
        "meta_ephemeris_type": 0,
        "meta_classification_type": "U",
        "meta_norad_cat_id": 60452,
        "meta_element_set_no": 999,
        "meta_rev_at_epoch": 7426,
        "meta_bstar": 0.00023231837,
        "meta_mean_motion_dot": 4.26e-05,
        "meta_mean_motion_ddot": 0,
        "tle_line1": "1 60452U 24146A   25350.24896184  .00004260  00000+0  23232-3 0  9997",
        "tle_line2": "2 60452  45.0022 291.3194 0015289 217.6692 142.3117 15.15801065 74269"
      },
      "geometry": {
        "type": "Point",
        "coordinates": [
          -28.680085092661155,
          34.7412285229963
        ]
      }
    },
    {
      "type": "Feature",
      "properties": {
        "norad_id": 60453,
        "name": "LEGION 4",
        "group": "resource",
        "lat": 33.652402350466545,
        "lon": 60.84409992522578,
        "alt_km": 511.9426126905564,
        "timestamp": "2025-12-16T23:36:35.842888+00:00",
        "meta_object_name": "LEGION 4",
        "meta_object_id": "2024-146B",
        "meta_epoch": "2025-12-16T07:34:03.583200",
        "meta_mean_motion": 15.1586461,
        "meta_eccentricity": 0.00091426,
        "meta_inclination": 45.04,
        "meta_ra_of_asc_node": 22.7258,
        "meta_arg_of_pericenter": 329.4651,
        "meta_mean_anomaly": 30.5695,
        "meta_ephemeris_type": 0,
        "meta_classification_type": "U",
        "meta_norad_cat_id": 60453,
        "meta_element_set_no": 999,
        "meta_rev_at_epoch": 7312,
        "meta_bstar": 0.00021902874,
        "meta_mean_motion_dot": 4.002e-05,
        "meta_mean_motion_ddot": 0,
        "tle_line1": "1 60453U 24146B   25350.31531925  .00004002  00000+0  21903-3 0  9992",
        "tle_line2": "2 60453  45.0400  22.7258 0009142 329.4651  30.5695 15.15864610 73123"
      },
      "geometry": {
        "type": "Point",
        "coordinates": [
          60.84409992522578,
          33.652402350466545
        ]
      }
    },
    {
      "type": "Feature",
      "properties": {
        "norad_id": 60989,
        "name": "SENTINEL-2C",
        "group": "resource",
        "lat": -69.89987243506943,
        "lon": -140.9240182363084,
        "alt_km": 797.0595953515231,
        "timestamp": "2025-12-16T23:36:35.842898+00:00",
        "meta_object_name": "SENTINEL-2C",
        "meta_object_id": "2024-157A",
        "meta_epoch": "2025-12-16T03:58:32.164320",
        "meta_mean_motion": 14.30818888,
        "meta_eccentricity": 0.00012252,
        "meta_inclination": 98.5681,
        "meta_ra_of_asc_node": 62.5989,
        "meta_arg_of_pericenter": 97.1163,
        "meta_mean_anomaly": 263.016,
        "meta_ephemeris_type": 0,
        "meta_classification_type": "U",
        "meta_norad_cat_id": 60989,
        "meta_element_set_no": 999,
        "meta_rev_at_epoch": 6681,
        "meta_bstar": 6.5505174e-05,
        "meta_mean_motion_dot": 1.28e-06,
        "meta_mean_motion_ddot": 0,
        "tle_line1": "1 60989U 24157A   25350.16565005  .00000128  00000+0  65505-4 0  9999",
        "tle_line2": "2 60989  98.5681  62.5989 0001225  97.1163 263.0160 14.30818888 66815"
      },
      "geometry": {
        "type": "Point",
        "coordinates": [
          -140.9240182363084,
          -69.89987243506943
        ]
      }
    },
    {
      "type": "Feature",
      "properties": {
        "norad_id": 61735,
        "name": "IONOSFERA-M 1",
        "group": "resource",
        "lat": 33.945076957292464,
        "lon": -145.14460266327572,
        "alt_km": 813.4343658617454,
        "timestamp": "2025-12-16T23:36:35.842909+00:00",
        "meta_object_name": "IONOSFERA-M 1",
        "meta_object_id": "2024-199A",
        "meta_epoch": "2025-12-16T08:15:28.822176",
        "meta_mean_motion": 14.22714802,
        "meta_eccentricity": 7.931e-05,
        "meta_inclination": 98.7402,
        "meta_ra_of_asc_node": 220.1646,
        "meta_arg_of_pericenter": 17.0099,
        "meta_mean_anomaly": 343.1106,
        "meta_ephemeris_type": 0,
        "meta_classification_type": "U",
        "meta_norad_cat_id": 61735,
        "meta_element_set_no": 999,
        "meta_rev_at_epoch": 10170,
        "meta_bstar": 4.3695768e-05,
        "meta_mean_motion_dot": 5.4e-07,
        "meta_mean_motion_ddot": 0,
        "tle_line1": "1 61735U 24199A   25350.34408359  .00000054  00000+0  43696-4 0  9998",
        "tle_line2": "2 61735  98.7402 220.1646 0000793  17.0099 343.1106 14.22714802101708"
      },
      "geometry": {
        "type": "Point",
        "coordinates": [
          -145.14460266327572,
          33.945076957292464
        ]
      }
    },
    {
      "type": "Feature",
      "properties": {
        "norad_id": 61736,
        "name": "IONOSFERA-M 2",
        "group": "resource",
        "lat": -36.797023089507796,
        "lon": 34.103794939324885,
        "alt_km": 822.9714725448948,
        "timestamp": "2025-12-16T23:36:35.842919+00:00",
        "meta_object_name": "IONOSFERA-M 2",
        "meta_object_id": "2024-199B",
        "meta_epoch": "2025-12-16T07:24:05.506848",
        "meta_mean_motion": 14.22716956,
        "meta_eccentricity": 0.00017254,
        "meta_inclination": 98.7401,
        "meta_ra_of_asc_node": 220.0417,
        "meta_arg_of_pericenter": 105.9097,
        "meta_mean_anomaly": 254.2271,
        "meta_ephemeris_type": 0,
        "meta_classification_type": "U",
        "meta_norad_cat_id": 61736,
        "meta_element_set_no": 999,
        "meta_rev_at_epoch": 10482,
        "meta_bstar": 4.1631067e-05,
        "meta_mean_motion_dot": 4.9e-07,
        "meta_mean_motion_ddot": 0,
        "tle_line1": "1 61736U 24199B   25350.30839707  .00000049  00000+0  41631-4 0  9991",
        "tle_line2": "2 61736  98.7401 220.0417 0001725 105.9097 254.2271 14.22716956104827"
      },
      "geometry": {
        "type": "Point",
        "coordinates": [
          34.103794939324885,
          -36.797023089507796
        ]
      }
    }
  ]
}